{"spkid": "50515400", "covariance": {"elements": [{"label": "e", "units": null, "title": "eccentricity", "value": ".5634619413129871", "sigma": 1.81813017314657e-08, "name": "e"}, {"value": ".9514181099519483", "title": "perihelion distance", "units": "au", "name": "q", "sigma": 3.47727387069461e-08, "label": "q"}, {"label": "tp", "value": "2456524.483793349892", "title": "time of perihelion passage", "units": "TDB", "name": "tp", "sigma": 1.66733486864795e-05}, {"name": "om", "sigma": 2.91659698046122e-05, "units": "deg", "title": "longitude of the ascending node", "value": "57.23030728360543", "label": "node"}, {"label": "peri", "sigma": 2.96863204908214e-05, "name": "w", "title": "argument of perihelion", "value": "200.9946931818331", "units": "deg"}, {"label": "i", "units": "deg", "title": "inclination", "value": "3.1907997607859", "name": "i", "sigma": 5.0995114159998e-06}], "data": [["3.305597326505991E-16", "-6.273002091236555E-16", "2.686049917068861E-13", "1.118712100721053E-13", "4.828948418229699E-14", "-6.034275290170826E-15"], ["-6.273002091236555E-16", "1.209143357181544E-15", "-4.767315389258837E-13", "-2.287584882730516E-13", "-7.878569465098006E-14", "1.258626891303782E-14"], ["2.686049917068861E-13", "-4.767315389258837E-13", "2.780005564209287E-10", "4.792527939183142E-11", "7.841020972309773E-11", "-2.684911280232711E-12"], ["1.118712100721053E-13", "-2.287584882730516E-13", "4.792527939183142E-11", "8.506537946435534E-10", "-8.246830723426691E-10", "-1.35319441934621E-10"], ["4.828948418229699E-14", "-7.878569465098006E-14", "7.841020972309773E-11", "-8.246830723426691E-10", "8.812776242837598E-10", "1.341194636870846E-10"], ["-6.034275290170826E-15", "1.258626891303782E-14", "-2.684911280232711E-12", "-1.35319441934621E-10", "1.341194636870846E-10", "2.60050166819123E-11"]], "labels": ["e", "q", "tp", "node", "peri", "i"], "epoch": "2456907.5"}, "elements": [{"label": "e", "value": ".5639421163952516", "title": "eccentricity", "units": null, "sigma": "1.9405E-8", "name": "e"}, {"sigma": "1.463E-8", "name": "a", "units": "au", "value": "2.179904206043993", "title": "semi-major axis", "label": "a"}, {"label": "q", "units": "au", "title": "perihelion distance", "value": ".9505644145486328", "sigma": "3.864E-8", "name": "q"}, {"label": "i", "title": "inclination; angle with respect to x-y ecliptic plane", "value": "3.162666438936437", "units": "deg", "sigma": "5.0535E-6", "name": "i"}, {"label": "node", "name": "om", "sigma": "2.9548E-5", "units": "deg", "value": "56.96660569125794", "title": "longitude of the ascending node"}, {"label": "peri", "name": "w", "sigma": "3.0056E-5", "title": "argument of perihelion", "value": "201.6359221889281", "units": "deg"}, {"units": "deg", "title": "mean anomaly", "value": "350.5338879750133", "name": "ma", "sigma": "2.0143E-5", "label": "M"}, {"sigma": "6.6084E-5", "name": "tp", "value": "2461231.411756226346", "title": "time of perihelion passage", "units": "TDB", "label": "tp"}, {"label": "period", "units": "d", "value": "1175.586366621327", "title": "sidereal orbital period", "name": "per", "sigma": "1.1835E-5"}, {"label": "n", "sigma": "3.0829E-9", "name": "n", "title": "mean motion", "value": ".3062301590266411", "units": "deg/d"}, {"label": "Q", "sigma": "2.2881E-8", "name": "ad", "value": "3.409243997539352", "title": "aphelion distance", "units": "au"}], "epoch": "2461200.5"}